[
  {
    "mcpNumber": "123456789",
    "name": "John Doe",
    "address": {
      "houseNumber": 123,
      "street": "Main Street",
      "city": "Anytown",
      "postalCode": "A1B 2C3"
    }
  },
  {
    "mcpNumber": "234567890",
    "name": "Jane Smith",
    "address": {
      "houseNumber": 456,
      "street": "Elm Street",
      "city": "Smallville",
      "postalCode": "B4C 5D6"
    }
  },
  {
    "mcpNumber": "345678901",
    "name": "Michael Johnson",
    "address": {
      "houseNumber": 789,
      "street": "Oak Avenue",
      "city": "Big City",
      "postalCode": "C7D 8E9"
    }
  },
  {
    "mcpNumber": "456789012",
    "name": "Emily Davis",
    "address": {
      "houseNumber": 101,
      "street": "Pine Road",
      "city": "Quietville",
      "postalCode": "F2G 3H4"
    }
  },
  {
    "mcpNumber": "567890123",
    "name": "David Wilson",
    "address": {
      "houseNumber": 222,
      "street": "Maple Lane",
      "city": "Happyville",
      "postalCode": "J5K 6L7"
    }
  },
  {
    "mcpNumber": "678901234",
    "name": "Sarah Miller",
    "address": {
      "houseNumber": 333,
      "street": "Cedar Drive",
      "city": "Sunnydale",
      "postalCode": "M8N 9P0"
    }
  },
  {
    "mcpNumber": "789012345",
    "name": "Robert Moore",
    "address": {
      "houseNumber": 444,
      "street": "Willow Creek",
      "city": "Dreamland",
      "postalCode": "Q1R 2S3"
    }
  },
  {
    "mcpNumber": "890123456",
    "name": "Linda Taylor",
    "address": {
      "houseNumber": 555,
      "street": "Spruce Boulevard",
      "city": "Wonderland",
      "postalCode": "T6U 7V8"
    }
  },
  {
    "mcpNumber": "901234567",
    "name": "Thomas Anderson",
    "address": {
      "houseNumber": 666,
      "street": "Fir Street",
      "city": "Neverland",
      "postalCode": "X9Y 0Z1"
    }
  },
  {
    "mcpNumber": "012345678",
    "name": "Karen Lewis",
    "address": {
      "houseNumber": 777,
      "street": "Hemlock Lane",
      "city": "Fairyland",
      "postalCode": "Z2A 3B4"
    }
  }
]